{
  "type": "FeatureCollection",
  "features": [
    {
      "type": "Feature",
      "properties": {
        "norad_id": 40938,
        "name": "BEIDOU-3S IGSO-2S (C56)",
        "group": "beidou",
        "lat": -48.992480275726386,
        "lon": -177.76587003012637,
        "alt_km": 35785.85656355963,
        "timestamp": "2025-12-18T23:35:49.325259+00:00",
        "meta_object_name": "BEIDOU-3S IGSO-2S (C56)",
        "meta_object_id": "2015-053A",
        "meta_epoch": "2025-12-18T16:16:13.469952",
        "meta_mean_motion": 1.0026889,
        "meta_eccentricity": 0.00604868,
        "meta_inclination": 49.5013,
        "meta_ra_of_asc_node": 260.9354,
        "meta_arg_of_pericenter": 188.6566,
        "meta_mean_anomaly": 337.9094,
        "meta_ephemeris_type": 0,
        "meta_classification_type": "U",
        "meta_norad_cat_id": 40938,
        "meta_element_set_no": 999,
        "meta_rev_at_epoch": 3754,
        "meta_bstar": 0,
        "meta_mean_motion_dot": -1.18e-06,
        "meta_mean_motion_ddot": 0,
        "tle_line1": "1 40938U 15053A   25352.67793368 -.00000118  00000+0  00000+0 0  9993",
        "tle_line2": "2 40938  49.5013 260.9354 0060486 188.6566 337.9094  1.00268890 37549"
      },
      "geometry": {
        "type": "Point",
        "coordinates": [
          -177.76587003012637,
          -48.992480275726386
        ]
      }
    },
    {
      "type": "Feature",
      "properties": {
        "norad_id": 41434,
        "name": "BEIDOU-2 IGSO-6 (C13)",
        "group": "beidou",
        "lat": 38.12927484159021,
        "lon": -167.08973955986036,
        "alt_km": 35800.643726598544,
        "timestamp": "2025-12-18T23:35:49.325271+00:00",
        "meta_object_name": "BEIDOU-2 IGSO-6 (C13)",
        "meta_object_id": "2016-021A",
        "meta_epoch": "2025-12-18T14:33:38.837664",
        "meta_mean_motion": 1.00292299,
        "meta_eccentricity": 0.0061005,
        "meta_inclination": 59.9732,
        "meta_ra_of_asc_node": 39.8392,
        "meta_arg_of_pericenter": 230.2031,
        "meta_mean_anomaly": 129.1398,
        "meta_ephemeris_type": 0,
        "meta_classification_type": "U",
        "meta_norad_cat_id": 41434,
        "meta_element_set_no": 999,
        "meta_rev_at_epoch": 3566,
        "meta_bstar": 0,
        "meta_mean_motion_dot": -1.41e-06,
        "meta_mean_motion_ddot": 0,
        "tle_line1": "1 41434U 16021A   25352.60669951 -.00000141  00000+0  00000+0 0  9990",
        "tle_line2": "2 41434  59.9732  39.8392 0061005 230.2031 129.1398  1.00292299 35667"
      },
      "geometry": {
        "type": "Point",
        "coordinates": [
          -167.08973955986036,
          38.12927484159021
        ]
      }
    },
    {
      "type": "Feature",
      "properties": {
        "norad_id": 41586,
        "name": "BEIDOU-2 G7 (C03)",
        "group": "beidou",
        "lat": 1.451542396361965,
        "lon": -167.69744214905023,
        "alt_km": 35796.917848716905,
        "timestamp": "2025-12-18T23:35:49.325283+00:00",
        "meta_object_name": "BEIDOU-2 G7 (C03)",
        "meta_object_id": "2016-037A",
        "meta_epoch": "2025-12-18T15:53:28.851936",
        "meta_mean_motion": 1.00272488,
        "meta_eccentricity": 0.00051146,
        "meta_inclination": 1.7711,
        "meta_ra_of_asc_node": 67.8361,
        "meta_arg_of_pericenter": 3.2464,
        "meta_mean_anomaly": 5.2624,
        "meta_ephemeris_type": 0,
        "meta_classification_type": "U",
        "meta_norad_cat_id": 41586,
        "meta_element_set_no": 999,
        "meta_rev_at_epoch": 508,
        "meta_bstar": 0,
        "meta_mean_motion_dot": -3.3e-06,
        "meta_mean_motion_ddot": 0,
        "tle_line1": "1 41586U 16037A   25352.66213949 -.00000330  00000+0  00000+0 0  9993",
        "tle_line2": "2 41586   1.7711  67.8361 0005114   3.2464   5.2624  1.00272488  5088"
      },
      "geometry": {
        "type": "Point",
        "coordinates": [
          -167.69744214905023,
          1.451542396361965
        ]
      }
    },
    {
      "type": "Feature",
      "properties": {
        "norad_id": 43001,
        "name": "BEIDOU-3 M1 (C19)",
        "group": "beidou",
        "lat": 0.8719347567928681,
        "lon": -111.53381517425215,
        "alt_km": 21542.780834147394,
        "timestamp": "2025-12-18T23:35:49.325295+00:00",
        "meta_object_name": "BEIDOU-3 M1 (C19)",
        "meta_object_id": "2017-069A",
        "meta_epoch": "2025-12-17T15:24:44.433216",
        "meta_mean_motion": 1.86231367,
        "meta_eccentricity": 0.00094147,
        "meta_inclination": 56.5313,
        "meta_ra_of_asc_node": 69.0717,
        "meta_arg_of_pericenter": 302.6799,
        "meta_mean_anomaly": 57.2556,
        "meta_ephemeris_type": 0,
        "meta_classification_type": "U",
        "meta_norad_cat_id": 43001,
        "meta_element_set_no": 999,
        "meta_rev_at_epoch": 5522,
        "meta_bstar": 0,
        "meta_mean_motion_dot": -7e-07,
        "meta_mean_motion_ddot": 0,
        "tle_line1": "1 43001U 17069A   25351.64218094 -.00000070  00000+0  00000+0 0  9997",
        "tle_line2": "2 43001  56.5313  69.0717 0009414 302.6799  57.2556  1.86231367 55228"
      },
      "geometry": {
        "type": "Point",
        "coordinates": [
          -111.53381517425215,
          0.8719347567928681
        ]
      }
    },
    {
      "type": "Feature",
      "properties": {
        "norad_id": 43002,
        "name": "BEIDOU-3 M2 (C20)",
        "group": "beidou",
        "lat": -32.6937267907018,
        "lon": -85.84013596772351,
        "alt_km": 21538.549058582954,
        "timestamp": "2025-12-18T23:35:49.325307+00:00",
        "meta_object_name": "BEIDOU-3 M2 (C20)",
        "meta_object_id": "2017-069B",
        "meta_epoch": "2025-12-18T15:42:26.278848",
        "meta_mean_motion": 1.86230995,
        "meta_eccentricity": 0.00064801,
        "meta_inclination": 56.5319,
        "meta_ra_of_asc_node": 69.0743,
        "meta_arg_of_pericenter": 330.892,
        "meta_mean_anomaly": 29.103,
        "meta_ephemeris_type": 0,
        "meta_classification_type": "U",
        "meta_norad_cat_id": 43002,
        "meta_element_set_no": 999,
        "meta_rev_at_epoch": 5523,
        "meta_bstar": 0,
        "meta_mean_motion_dot": -6.1e-07,
        "meta_mean_motion_ddot": 0,
        "tle_line1": "1 43002U 17069B   25352.65447082 -.00000061  00000+0  00000+0 0  9991",
        "tle_line2": "2 43002  56.5319  69.0743 0006480 330.8920  29.1030  1.86230995 55235"
      },
      "geometry": {
        "type": "Point",
        "coordinates": [
          -85.84013596772351,
          -32.6937267907018
        ]
      }
    },
    {
      "type": "Feature",
      "properties": {
        "norad_id": 43107,
        "name": "BEIDOU-3 M7 (C27)",
        "group": "beidou",
        "lat": 26.143879399192343,
        "lon": -30.930083152059453,
        "alt_km": 21518.606281061264,
        "timestamp": "2025-12-18T23:35:49.325319+00:00",
        "meta_object_name": "BEIDOU-3 M7 (C27)",
        "meta_object_id": "2018-003A",
        "meta_epoch": "2025-12-17T07:45:51.117120",
        "meta_mean_motion": 1.86232475,
        "meta_eccentricity": 0.00027428,
        "meta_inclination": 54.4925,
        "meta_ra_of_asc_node": 308.6547,
        "meta_arg_of_pericenter": 69.5375,
        "meta_mean_anomaly": 290.4783,
        "meta_ephemeris_type": 0,
        "meta_classification_type": "U",
        "meta_norad_cat_id": 43107,
        "meta_element_set_no": 999,
        "meta_rev_at_epoch": 5396,
        "meta_bstar": 0,
        "meta_mean_motion_dot": -9.2e-07,
        "meta_mean_motion_ddot": 0,
        "tle_line1": "1 43107U 18003A   25351.32350830 -.00000092  00000+0  00000+0 0  9997",
        "tle_line2": "2 43107  54.4925 308.6547 0002742  69.5375 290.4783  1.86232475 53963"
      },
      "geometry": {
        "type": "Point",
        "coordinates": [
          -30.930083152059453,
          26.143879399192343
        ]
      }
    },
    {
      "type": "Feature",
      "properties": {
        "norad_id": 43108,
        "name": "BEIDOU-3 M8 (C28)",
        "group": "beidou",
        "lat": 49.74592256827348,
        "lon": 5.990780208179985,
        "alt_km": 21533.732375905936,
        "timestamp": "2025-12-18T23:35:49.325330+00:00",
        "meta_object_name": "BEIDOU-3 M8 (C28)",
        "meta_object_id": "2018-003B",
        "meta_epoch": "2025-12-17T06:26:34.084320",
        "meta_mean_motion": 1.8623095,
        "meta_eccentricity": 0.00046498,
        "meta_inclination": 54.4854,
        "meta_ra_of_asc_node": 308.6394,
        "meta_arg_of_pericenter": 276.4476,
        "meta_mean_anomaly": 83.4857,
        "meta_ephemeris_type": 0,
        "meta_classification_type": "U",
        "meta_norad_cat_id": 43108,
        "meta_element_set_no": 999,
        "meta_rev_at_epoch": 5397,
        "meta_bstar": 0,
        "meta_mean_motion_dot": -9.2e-07,
        "meta_mean_motion_ddot": 0,
        "tle_line1": "1 43108U 18003B   25351.26845005 -.00000092  00000+0  00000+0 0  9994",
        "tle_line2": "2 43108  54.4854 308.6394 0004649 276.4476  83.4857  1.86230950 53973"
      },
      "geometry": {
        "type": "Point",
        "coordinates": [
          5.990780208179985,
          49.74592256827348
        ]
      }
    }
  ]
}